STARLINK-30830          
1 58194U 23167V   26067.27905089 -.00000878  00000+0 -23033-4 0  9996
2 58194  43.0047 150.9804 0002253 291.0825  68.9786 15.26745059130779
FLOCK 4G-23             
1 62647U 25009AQ  26068.71663397  .00012440  00000+0  46816-3 0  9993
2 62647  97.3979 150.9478 0000905   7.2707 352.8545 15.27262579 63728
